STARLINK-1272
1 45386U 20019AC  26090.91671296  .00093133  00000+0  11122-2 0  9993
2 45386  53.0444   1.7880 0003499 179.4789 137.6311 15.60284601  5934
STARLINK-1357
1 45565U 20025AL  26090.91671296  .00152933  00000+0  18100-2 0  9996
2 45565  53.0486 290.0931 0004114 214.3700 175.6165 15.60267665  5981
STARLINK-1718
1 46674U 20073E   26090.83335647  .00148034  00000+0  17494-2 0  9991
2 46674  53.0473 120.4597 0007586  21.1436   1.3203 15.60303569  5969
